M2 PATHFINDER           
1 45727U 20037E   26068.47969609  .00004468  00000+0  32592-3 0  9994
2 45727  97.8158 258.5983 0012405 127.8041 232.4310 15.04175941310501
STARLINK-34798          
1 65063U 25165H   26068.75374968  .00007006  00000+0  48938-3 0  9997
2 65063  97.6023 147.3485 0001155  92.2896 267.8463 15.05644548 34802
